     2              NAVIGATION DATA                         RINEX VERSION / TYPE
CCRINEXN V1.6.0 UX  CDDIS               31-MAY-21 19:31     PGM / RUN BY / DATE 
IGS BROADCAST EPHEMERIS FILE                                COMMENT             
    0.6519D-08  0.2235D-07 -0.5960D-07 -0.1192D-06          ION ALPHA           
    0.8602D+05  0.9830D+05 -0.6554D+05 -0.5243D+06          ION BETA            
    0.372529029846D-08 0.888178419700D-14   147456     2160 DELTA-UTC: A0,A1,T,W
    18                                                      LEAP SECONDS        
                                                            END OF HEADER       
28 21  5 30  6  0  0.0 0.563099980354D-03-0.613908923697D-11 0.000000000000D+00
    0.820000000000D+02 0.897812500000D+02 0.382301638684D-08-0.239617377085D+01
    0.457651913166D-05 0.175170098664D-01 0.981241464615D-05 0.515373813248D+04
    0.216000000000D+05 0.266358256340D-06 0.711874234088D+00 0.171363353729D-06
    0.972942278906D+00 0.197093750000D+03-0.134760808647D+01-0.731673334274D-08
   -0.401088135502D-09 0.100000000000D+01 0.216000000000D+04 0.000000000000D+00
    0.400000000000D+01 0.000000000000D+00-0.111758708954D-07 0.820000000000D+02
    0.144180000000D+05 0.400000000000D+01 0.000000000000D+00 0.000000000000D+00
29 21  5 30  6  0  0.0-0.355619937181D-03-0.636646291241D-11 0.000000000000D+00
    0.950000000000D+02 0.110843750000D+03 0.393873549271D-08-0.280036388096D+01
    0.569038093090D-05 0.189021637198D-02 0.363588333130D-05 0.515363535500D+04
    0.216000000000D+05 0.558793544769D-07 0.173846505441D+01-0.335276126862D-07
    0.983750569297D+00 0.322718750000D+03 0.214686220092D+01-0.799747598412D-08
    0.130719730716D-09 0.100000000000D+01 0.216000000000D+04 0.000000000000D+00
    0.280000000000D+01 0.000000000000D+00-0.977888703346D-08 0.950000000000D+02
    0.144180000000D+05 0.400000000000D+01 0.000000000000D+00 0.000000000000D+00
30 21  5 30  6  0  0.0-0.432579312473D-03-0.477484718431D-11 0.000000000000D+00
    0.123000000000D+03-0.937500000000D-01 0.544272671141D-08 0.389598277612D+00
   -0.298023223877D-07 0.524518464226D-02 0.629387795925D-05 0.515369251633D+04
    0.216000000000D+05-0.223517417908D-07-0.403418565648D+00-0.149011611938D-07
    0.937024124667D+00 0.240437500000D+03-0.277520748315D+01-0.845070914881D-08
   -0.483948729836D-09 0.100000000000D+01 0.216000000000D+04 0.000000000000D+00
    0.200000000000D+01 0.000000000000D+00 0.372529029846D-08 0.123000000000D+03
    0.144180000000D+05 0.400000000000D+01 0.000000000000D+00 0.000000000000D+00
31 21  5 30  6  0  0.0-0.120167620480D-03-0.216004991671D-11 0.000000000000D+00
    0.720000000000D+02 0.268750000000D+01 0.502592363561D-08-0.244408128922D-01
    0.106170773506D-06 0.993876880966D-02 0.675581395626D-05 0.515378569222D+04
    0.216000000000D+05 0.100582838059D-06-0.403485846714D+00 0.558793544769D-07
    0.956128276775D+00 0.245000000000D+03 0.264980840121D+00-0.823034282682D-08
   -0.415017287136D-09 0.100000000000D+01 0.216000000000D+04 0.000000000000D+00
    0.200000000000D+01 0.000000000000D+00-0.130385160446D-07 0.720000000000D+02
    0.144180000000D+05 0.400000000000D+01 0.000000000000D+00 0.000000000000D+00
32 21  5 30  6  0  0.0 0.200695358217D-04-0.102318153950D-11 0.000000000000D+00
    0.410000000000D+02-0.100937500000D+02 0.486734560162D-08-0.223483292172D+01
   -0.469386577606D-06 0.499095057603D-02 0.823475420475D-05 0.515367153740D+04
    0.216000000000D+05 0.180676579475D-06-0.148317426181D+01-0.558793544769D-08
    0.956865110576D+00 0.217406250000D+03-0.236462628626D+01-0.796854620765D-08
    0.538951020902D-09 0.100000000000D+01 0.216000000000D+04 0.000000000000D+00
    0.200000000000D+01 0.000000000000D+00 0.465661287308D-09 0.410000000000D+02
    0.144180000000D+05 0.400000000000D+01 0.000000000000D+00 0.000000000000D+00
 2 21  5 30  7 59 44.0-0.608373899013D-03-0.306954461848D-11 0.000000000000D+00
    0.150000000000D+02-0.571562500000D+02 0.423303346569D-08 0.245601620209D+01
   -0.290758907795D-05 0.201887461590D-01 0.126473605633D-05 0.515368780136D+04
    0.287840000000D+05 0.238418579102D-06 0.263913887738D+01-0.651925802231D-07
    0.963260189665D+00 0.351281250000D+03-0.151611291859D+01-0.787889961637D-08
   -0.128576784311D-09 0.100000000000D+01 0.216000000000D+04 0.000000000000D+00
    0.200000000000D+01 0.000000000000D+00-0.176951289177D-07 0.150000000000D+02
    0.270960000000D+05 0.400000000000D+01 0.000000000000D+00 0.000000000000D+00
 3 21  5 30  7 59 44.0-0.177911482751D-03-0.104591890704D-10 0.000000000000D+00
    0.160000000000D+02-0.100406250000D+03 0.408981321428D-08 0.112983948219D+01
   -0.539980828762D-05 0.352972780820D-02 0.888109207153D-05 0.515359396744D+04
    0.287840000000D+05-0.279396772385D-07-0.252311202839D+01 0.130385160446D-07
    0.969528215782D+00 0.211625000000D+03 0.843779116067D+00-0.782425448303D-08
    0.210723063176D-09 0.100000000000D+01 0.216000000000D+04 0.000000000000D+00
    0.200000000000D+01 0.000000000000D+00 0.186264514923D-08 0.160000000000D+02
    0.273180000000D+05 0.400000000000D+01 0.000000000000D+00 0.000000000000D+00
12 21  5 30  7 59 44.0-0.480213202536D-04-0.522959453519D-11 0.000000000000D+00
    0.180000000000D+02 0.801562500000D+02 0.406838375023D-08 0.830892857337D+00
    0.415556132793D-05 0.839631026611D-02 0.986829400063D-05 0.515373695946D+04
    0.287840000000D+05-0.968575477600D-07 0.689504443599D+00 0.298023223877D-07
    0.973784726614D+00 0.198375000000D+03 0.121721600662D+01-0.779889628391D-08
   -0.448590114150D-09 0.100000000000D+01 0.216000000000D+04 0.000000000000D+00
    0.200000000000D+01 0.000000000000D+00-0.125728547573D-07 0.180000000000D+02
    0.216180000000D+05 0.400000000000D+01 0.000000000000D+00 0.000000000000D+00
29 21  5 30  7 59 44.0-0.355665106326D-03-0.636646291241D-11 0.000000000000D+00
    0.170000000000D+02 0.105437500000D+03 0.395552190622D-08-0.175254368062D+01
    0.541470944881D-05 0.188983406406D-02 0.359863042831D-05 0.515363568306D+04
    0.287840000000D+05 0.484287738800D-07 0.173840754125D+01 0.223517417908D-07
    0.983751346106D+00 0.322843750000D+03 0.214690785421D+01-0.802104839458D-08
    0.116790579082D-09 0.100000000000D+01 0.216000000000D+04 0.000000000000D+00
    0.200000000000D+01 0.000000000000D+00-0.977888703346D-08 0.170000000000D+02
    0.269160000000D+05 0.400000000000D+01 0.000000000000D+00 0.000000000000D+00
30 21  5 30  7 59 44.0-0.432614702731D-03-0.477484718431D-11 0.000000000000D+00
    0.100000000000D+02 0.200000000000D+01 0.556237455237D-08 0.143740911528D+01
    0.311061739922D-06 0.524540781044D-02 0.670179724693D-05 0.515369303131D+04
    0.287840000000D+05 0.689178705216D-07-0.403480172054D+00 0.128522515297D-06
    0.937020986708D+00 0.239531250000D+03-0.277517539404D+01-0.848713923770D-08
   -0.345371528968D-09 0.100000000000D+01 0.216000000000D+04 0.000000000000D+00
    0.200000000000D+01 0.000000000000D+00 0.372529029846D-08 0.100000000000D+02
    0.227580000000D+05 0.400000000000D+01 0.000000000000D+00 0.000000000000D+00
 1 21  5 30  8  0  0.0 0.674072653055D-03-0.114823706099D-10 0.000000000000D+00
    0.380000000000D+02-0.612500000000D+02 0.393302096897D-08 0.217919310448D+01
   -0.333227217197D-05 0.109430060256D-01 0.235065817833D-05 0.515368523979D+04
    0.288000000000D+05-0.968575477600D-07 0.272299509572D+01-0.111758708954D-06
    0.984644780899D+00 0.347750000000D+03 0.850636050097D+00-0.804140638542D-08
   -0.425017703693D-10 0.100000000000D+01 0.216000000000D+04 0.000000000000D+00
    0.200000000000D+01 0.000000000000D+00 0.512227416039D-08 0.380000000000D+02
    0.216670000000D+05 0.400000000000D+01 0.000000000000D+00 0.000000000000D+00
 2 21  5 30  8  0  0.0-0.608373899013D-03-0.306954461848D-11 0.000000000000D+00
    0.110000000000D+03-0.571562500000D+02 0.423267630796D-08 0.245835005235D+01
   -0.290758907795D-05 0.201887453441D-01 0.126473605633D-05 0.515368778992D+04
    0.288000000000D+05 0.238418579102D-06 0.263913877936D+01-0.651925802231D-07
    0.963260208683D+00 0.351281250000D+03-0.151611294346D+01-0.787889961637D-08
   -0.128576784311D-09 0.100000000000D+01 0.216000000000D+04 0.000000000000D+00
    0.280000000000D+01 0.000000000000D+00-0.176951289177D-07 0.110000000000D+03
    0.216180000000D+05 0.400000000000D+01 0.000000000000D+00 0.000000000000D+00
 3 21  5 30  8  0  0.0-0.177911017090D-03-0.104591890704D-10 0.000000000000D+00
    0.184000000000D+03-0.100406250000D+03 0.408981321428D-08 0.113217361626D+01
   -0.540167093277D-05 0.352973339613D-02 0.888109207153D-05 0.515359397125D+04
    0.288000000000D+05-0.279396772385D-07-0.252311218054D+01 0.130385160446D-07
    0.969528214319D+00 0.211625000000D+03 0.843778801540D+00-0.782425448303D-08
    0.211080220910D-09 0.100000000000D+01 0.216000000000D+04 0.000000000000D+00
    0.282842707634D+01 0.000000000000D+00 0.186264514923D-08 0.184000000000D+03
    0.216680000000D+05 0.400000000000D+01 0.000000000000D+00 0.000000000000D+00
 4 21  5 30  8  0  0.0-0.198183115572D-03-0.136424205266D-11 0.000000000000D+00
    0.930000000000D+02-0.831250000000D+01 0.478484216503D-08-0.248541628094D+01
   -0.474974513054D-06 0.124954723287D-02 0.846385955810D-05 0.515373486900D+04
    0.288000000000D+05 0.130385160446D-07-0.144240362147D+01-0.577419996262D-07
    0.960033166469D+00 0.221156250000D+03-0.291808570925D+01-0.792211570220D-08
    0.482520098899D-09 0.100000000000D+01 0.216000000000D+04 0.000000000000D+00
    0.200000000000D+01 0.000000000000D+00-0.419095158577D-08 0.930000000000D+02
    0.226930000000D+05 0.400000000000D+01 0.000000000000D+00 0.000000000000D+00
